// AST SpaceMobile TLE data — regenerate with ./update-tles.sh
const TLE_DATA = {
 "fetched": "2026-07-20T22:04:42Z",
 "tles": {
  "SPACEMOBILE-003": [
   "1 61045U 24163A   26201.14245972  .00001670  00000+0  89590-4 0  9995",
   "2 61045  52.9674 157.8928 0004241 210.2897 149.7852 15.20721715102786"
  ],
  "SPACEMOBILE-005": [
   "1 61046U 24163B   26201.25732527  .00001252  00000+0  70891-4 0  9995",
   "2 61046  52.9743 157.3189 0008669 211.7347 148.3126 15.20720640102798"
  ],
  "SPACEMOBILE-001": [
   "1 61047U 24163C   26201.25568385 -.00000135  00000+0  86599-5 0  9998",
   "2 61047  52.9710 157.0335 0006953 209.4162 150.6442 15.20700764102798"
  ],
  "SPACEMOBILE-002": [
   "1 61048U 24163D   26200.18806198  .00010534  00000+0  48876-3 0  9994",
   "2 61048  52.9793 161.9891 0004751 205.9492 154.1265 15.20578455102637"
  ],
  "SPACEMOBILE-002 DEB": [
   "1 62370U 24163G   26201.01132784  .00012613  00000+0  28156-3 0  9998",
   "2 62370  52.9421 108.6919 0004762 303.9545  56.1006 15.43937934103432"
  ],
  "SPACEMOBILE-003 DEB": [
   "1 62371U 24163H   26200.98744474  .00011557  00000+0  27895-3 0  9994",
   "2 62371  52.9693 115.8005 0005410 254.3206 105.7200 15.41677186 96946"
  ],
  "SPACEMOBILE-004 DEB": [
   "1 62372U 24163J   26201.13830311  .00007548  00000+0  19073-3 0  9993",
   "2 62372  52.9842 114.7751 0002802 285.7775  74.2919 15.40849582100033"
  ],
  "SPACEMOBILE-005 DEB": [
   "1 62373U 24163K   26201.21578250  .00006365  00000+0  19739-3 0  9999",
   "2 62373  52.9739 128.8427 0005494 248.3822 111.6593 15.34714865103195"
  ],
  "SPACEMOBILE-008": [
   "1 69589U 26139A   26201.17380628  .00000346  00000+0  36450-4 0  9998",
   "2 69589  52.9951 112.8041 0005247  68.3967 291.7583 15.12806988  4977"
  ],
  "SPACEMOBILE-009": [
   "1 69590U 26139B   26201.17611898  .00000314  00000+0  34750-4 0  9992",
   "2 69590  52.9943 112.8125 0005597  65.1847 294.9726 15.12700615  4977"
  ]
 }
};
